1  8820U 76039A   03290.72373810 -.00000000 +00000-0 +10000-3 0  9993
2  8820 109.8217 223.5388 0044341 275.1577 084.3951 06.38664601384880
1  8820U 76039A   03292.75942584 -.00000004 +00000-0 +10000-3 0  9992
2  8820 109.8222 224.2358 0044351 274.7604 084.7919 06.38664568385014
1  8820U 76039A   03293.85556399 -.00000006 +00000-0 +10000-3 0  9991
2  8820 109.8221 224.6111 0044340 274.4904 085.0610 06.38664607385085
1  8820U 76039A   03294.79511159 -.00000007 +00000-0 +10000-3 0  9991
2  8820 109.8222 224.9331 0044340 274.3055 085.2451 06.38664605385149
1  8820U 76039A   03295.89125128 -.00000007 +00000-0 +10000-3 0  9990
2  8820 109.8220 225.3092 0044388 274.0990 085.4503 06.38664465385215
1  8820U 76039A   03296.83079934 -.00000007 +00000-0 +10000-3 0  9998
2  8820 109.8221 225.6308 0044392 273.8975 085.6515 06.38664455385274
1  8820U 76039A   03297.77034751 -.00000006 +00000-0 +10000-3 0  9999
2  8820 109.8218 225.9528 0044366 273.7559 085.7932 06.38664470385333
1  8820U 76039A   03298.70989576 -.00000004 +00000-0 +10000-3 0  9995
2  8820 109.8219 226.2745 0044365 273.5617 085.9877 06.38664473385390
1  8820U 76039A   03299.96262633 -.00000001 +00000-0 +10000-3 0  9999
2  8820 109.8221 226.7036 0044361 273.3042 086.2459 06.38664509385476
1  8820U 76039A   03300.90217463 -.00000000 +00000-0 +10000-3 0  9996
2  8820 109.8223 227.0250 0044370 273.1028 086.4480 06.38664520385538
1  8820U 76039A   03301.84172317 -.00000000 +00000-0 +10000-3 0  9998
2  8820 109.8224 227.3465 0044378 272.8650 086.6863 06.38664501385597
1  8820U 76039A   03302.78127141 -.00000002 +00000-0 +10000-3 0  9999
2  8820 109.8228 227.6683 0044376 272.6645 086.8868 06.38664486385652
1  8820U 76039A   03303.72081955 -.00000005 +00000-0 +10000-3 0  9999
2  8820 109.8234 227.9891 0044436 272.5257 087.0255 06.38664490385713
1  8820U 76039A   03304.81695835 -.00000010 +00000-0 +10000-3 0  9994
2  8820 109.8237 228.3645 0044417 272.2648 087.2859 06.38664509385788
1 08820U 76039A   03291.50669477 -.00000002  00000-0  10000-3 0  9999
2 08820 109.8217 223.8070 0044345 275.0002 084.5525 06.38664596384935
1 08820U 76039A   03300.11921778 -.00000001  00000-0  10000-3 0  9991
2 08820 109.8222 226.7571 0044366 273.2745 086.2762 06.38664521385487